{
"type": "FeatureCollection",
"name": "osm_places",
"crs": { "type": "name", "properties": { "name": "urn:ogc:def:crs:OGC:1.3:CRS84" } },
"features": [
{ "type": "Feature", "properties": { "name": "Dimow", "type": "town" }, "geometry": { "type": "Point", "coordinates": [ 94.7405111, 27.1272894 ] } },
{ "type": "Feature", "properties": { "name": "Dilli", "type": "village" }, "geometry": { "type": "Point", "coordinates": [ 95.4178, 27.1093 ] } },
{ "type": "Feature", "properties": { "name": "Borhat", "type": "village" }, "geometry": { "type": "Point", "coordinates": [ 95.2768719, 27.163159 ] } },
{ "type": "Feature", "properties": { "name": "Deomali", "type": "town" }, "geometry": { "type": "Point", "coordinates": [ 95.4642398, 27.1959185 ] } },
{ "type": "Feature", "properties": { "name": "Naharkatia", "type": "town" }, "geometry": { "type": "Point", "coordinates": [ 95.3258308, 27.286295 ] } },
{ "type": "Feature", "properties": { "name": "Dijmur", "type": "village" }, "geometry": { "type": "Point", "coordinates": [ 94.8938544, 27.6228253 ] } },
{ "type": "Feature", "properties": { "name": "Dibrugarh", "type": "city" }, "geometry": { "type": "Point", "coordinates": [ 94.9019447, 27.4844597 ] } },
{ "type": "Feature", "properties": { "name": "Chabua", "type": "town" }, "geometry": { "type": "Point", "coordinates": [ 95.1730318, 27.4826767 ] } },
{ "type": "Feature", "properties": { "name": "Lengeri Gaon", "type": "village" }, "geometry": { "type": "Point", "coordinates": [ 95.0276473, 27.2760232 ] } },
{ "type": "Feature", "properties": { "name": "Majarbari Ghat", "type": "village" }, "geometry": { "type": "Point", "coordinates": [ 94.9083595, 27.5946843 ] } },
{ "type": "Feature", "properties": { "name": "Duliajan", "type": "town" }, "geometry": { "type": "Point", "coordinates": [ 95.3192307, 27.3559134 ] } },
{ "type": "Feature", "properties": { "name": "Makum", "type": "town" }, "geometry": { "type": "Point", "coordinates": [ 95.4381283, 27.4845427 ] } },
{ "type": "Feature", "properties": { "name": "Tipling", "type": "suburb" }, "geometry": { "type": "Point", "coordinates": [ 95.3223857, 27.3328362 ] } },
{ "type": "Feature", "properties": { "name": "Sepon", "type": "village" }, "geometry": { "type": "Point", "coordinates": [ 94.8516485, 27.1155187 ] } },
{ "type": "Feature", "properties": { "name": "Jayanagar", "type": "suburb" }, "geometry": { "type": "Point", "coordinates": [ 95.3159407, 27.3493013 ] } },
{ "type": "Feature", "properties": { "name": "Settlement Area", "type": "suburb" }, "geometry": { "type": "Point", "coordinates": [ 95.3290933, 27.3549841 ] } },
{ "type": "Feature", "properties": { "name": "BOC Gate", "type": "suburb" }, "geometry": { "type": "Point", "coordinates": [ 95.3171141, 27.3516771 ] } },
{ "type": "Feature", "properties": { "name": "Bordubi", "type": "village" }, "geometry": { "type": "Point", "coordinates": [ 95.3241361, 27.392937 ] } },
{ "type": "Feature", "properties": { "name": "Dhemaji", "type": "town" }, "geometry": { "type": "Point", "coordinates": [ 94.5629622, 27.4763797 ] } },
{ "type": "Feature", "properties": { "name": "Bhatiu", "type": "village" }, "geometry": { "type": "Point", "coordinates": [ 95.1375349, 27.4743649 ] } },
{ "type": "Feature", "properties": { "name": "Dikom", "type": "village" }, "geometry": { "type": "Point", "coordinates": [ 95.0830283, 27.4652113 ] } },
{ "type": "Feature", "properties": { "name": "Panitola", "type": "village" }, "geometry": { "type": "Point", "coordinates": [ 95.2575999, 27.4951618 ] } },
{ "type": "Feature", "properties": { "name": "Naguli Ghat", "type": "village" }, "geometry": { "type": "Point", "coordinates": [ 95.0136445, 27.5254404 ] } },
{ "type": "Feature", "properties": { "name": "Likabali", "type": "village" }, "geometry": { "type": "Point", "coordinates": [ 94.6977781, 27.6588306 ] } },
{ "type": "Feature", "properties": { "name": "Sapekhati", "type": "village" }, "geometry": { "type": "Point", "coordinates": [ 95.1593276, 27.1106207 ] } },
{ "type": "Feature", "properties": { "name": "Borghuli", "type": "village" }, "geometry": { "type": "Point", "coordinates": [ 95.3236055, 27.5923506 ] } },
{ "type": "Feature", "properties": { "name": "Guijan", "type": "village" }, "geometry": { "type": "Point", "coordinates": [ 95.327234, 27.5692211 ] } },
{ "type": "Feature", "properties": { "name": "Tipam Phake", "type": "village" }, "geometry": { "type": "Point", "coordinates": [ 95.3953686, 27.2792465 ] } },
{ "type": "Feature", "properties": { "name": "Phaltan Basti", "type": "village" }, "geometry": { "type": "Point", "coordinates": [ 95.3876546, 27.2833097 ] } },
{ "type": "Feature", "properties": { "name": "Namphakey", "type": "village" }, "geometry": { "type": "Point", "coordinates": [ 95.3687189, 27.2821688 ] } },
{ "type": "Feature", "properties": { "name": "Tinsukia", "type": "town" }, "geometry": { "type": "Point", "coordinates": [ 95.3601855, 27.4879722 ] } },
{ "type": "Feature", "properties": { "name": "Joypur", "type": "village" }, "geometry": { "type": "Point", "coordinates": [ 95.3895606, 27.2681601 ] } },
{ "type": "Feature", "properties": { "name": "Dimow", "type": "village" }, "geometry": { "type": "Point", "coordinates": [ 94.8111854, 27.6717985 ] } },
{ "type": "Feature", "properties": { "name": "Phukangaon", "type": "village" }, "geometry": { "type": "Point", "coordinates": [ 94.6033303, 27.5409552 ] } },
{ "type": "Feature", "properties": { "name": "Silapathar", "type": "town" }, "geometry": { "type": "Point", "coordinates": [ 94.7255857, 27.5893833 ] } },
{ "type": "Feature", "properties": { "name": "Sisi Bargaon", "type": "village" }, "geometry": { "type": "Point", "coordinates": [ 94.6797056, 27.5304146 ] } },
{ "type": "Feature", "properties": { "name": "Kulajan", "type": "town" }, "geometry": { "type": "Point", "coordinates": [ 94.7287378, 27.5247513 ] } },
{ "type": "Feature", "properties": { "name": "Borhapjan", "type": "village" }, "geometry": { "type": "Point", "coordinates": [ 95.5004602, 27.5363699 ] } },
{ "type": "Feature", "properties": { "name": "Borchahaki", "type": "village" }, "geometry": { "type": "Point", "coordinates": [ 94.9207004, 27.1015907 ] } },
{ "type": "Feature", "properties": { "name": "Otongkhua", "type": "village" }, "geometry": { "type": "Point", "coordinates": [ 95.3695808, 27.0857524 ] } },
{ "type": "Feature", "properties": { "name": "Longkhojan", "type": "village" }, "geometry": { "type": "Point", "coordinates": [ 95.3631382, 27.1069275 ] } },
{ "type": "Feature", "properties": { "name": "Kamkuh Russa", "type": "village" }, "geometry": { "type": "Point", "coordinates": [ 95.2700019, 27.0732837 ] } },
{ "type": "Feature", "properties": { "name": "Lawnu", "type": "town" }, "geometry": { "type": "Point", "coordinates": [ 95.3658729, 27.0943515 ] } },
{ "type": "Feature", "properties": { "name": "Naitong", "type": "village" }, "geometry": { "type": "Point", "coordinates": [ 95.3691345, 27.0895757 ] } },
{ "type": "Feature", "properties": { "name": "Tingkhong", "type": "village" }, "geometry": { "type": "Point", "coordinates": [ 95.1749038, 27.2171019 ] } },
{ "type": "Feature", "properties": { "name": "Tengakhat", "type": "village" }, "geometry": { "type": "Point", "coordinates": [ 95.1698398, 27.3808373 ] } },
{ "type": "Feature", "properties": { "name": "Sologuri", "type": "village" }, "geometry": { "type": "Point", "coordinates": [ 94.837718, 27.0793412 ] } },
{ "type": "Feature", "properties": { "name": "Namsang", "type": "village" }, "geometry": { "type": "Point", "coordinates": [ 95.4729509, 27.1264834 ] } },
{ "type": "Feature", "properties": { "name": "Makat", "type": "village" }, "geometry": { "type": "Point", "coordinates": [ 95.5220894, 27.1136669 ] } },
{ "type": "Feature", "properties": { "name": "Sipini Pathar", "type": "village" }, "geometry": { "type": "Point", "coordinates": [ 95.4692274, 27.0995811 ] } },
{ "type": "Feature", "properties": { "name": "জয়্গুখ্ব গাঁও", "type": "village" }, "geometry": { "type": "Point", "coordinates": [ 95.3958428, 27.5338566 ] } },
{ "type": "Feature", "properties": { "name": "না-মাতাপুং গাঁও", "type": "village" }, "geometry": { "type": "Point", "coordinates": [ 95.43643, 27.5260647 ] } },
{ "type": "Feature", "properties": { "name": "দেন্কা গাঁও", "type": "village" }, "geometry": { "type": "Point", "coordinates": [ 95.413835, 27.535826 ] } },
{ "type": "Feature", "properties": { "name": "টারজান গাঁও", "type": "village" }, "geometry": { "type": "Point", "coordinates": [ 95.4038725, 27.543894 ] } },
{ "type": "Feature", "properties": { "name": "Ikarani 1", "type": "village" }, "geometry": { "type": "Point", "coordinates": [ 95.0953066, 27.3430472 ] } },
{ "type": "Feature", "properties": { "name": "Changamari Habi", "type": "village" }, "geometry": { "type": "Point", "coordinates": [ 94.826707, 27.4265029 ] } },
{ "type": "Feature", "properties": { "name": "Mereli Pathar", "type": "village" }, "geometry": { "type": "Point", "coordinates": [ 95.1918232, 27.4904658 ] } },
{ "type": "Feature", "properties": { "name": "Khagorimaijan", "type": "village" }, "geometry": { "type": "Point", "coordinates": [ 95.1076019, 27.5098225 ] } },
{ "type": "Feature", "properties": { "name": "Baratichuk", "type": "hamlet" }, "geometry": { "type": "Point", "coordinates": [ 95.0952818, 27.519137 ] } },
{ "type": "Feature", "properties": { "name": "Chamoni Gaon", "type": "hamlet" }, "geometry": { "type": "Point", "coordinates": [ 95.1095116, 27.5052168 ] } },
{ "type": "Feature", "properties": { "name": "Barahi-Da-Pathar", "type": "village" }, "geometry": { "type": "Point", "coordinates": [ 95.1224109, 27.5195811 ] } },
{ "type": "Feature", "properties": { "name": "Niz-Rahmoria", "type": "village" }, "geometry": { "type": "Point", "coordinates": [ 95.1325124, 27.5142684 ] } },
{ "type": "Feature", "properties": { "name": "Dhupabor Maijan", "type": "village" }, "geometry": { "type": "Point", "coordinates": [ 95.1432357, 27.5262484 ] } },
{ "type": "Feature", "properties": { "name": "Mathuri Pathar", "type": "village" }, "geometry": { "type": "Point", "coordinates": [ 94.7098732, 27.6390559 ] } },
{ "type": "Feature", "properties": { "name": "Ghagara Adi", "type": "village" }, "geometry": { "type": "Point", "coordinates": [ 94.7126949, 27.6505083 ] } },
{ "type": "Feature", "properties": { "name": "Malini", "type": "village" }, "geometry": { "type": "Point", "coordinates": [ 94.7122656, 27.6593413 ] } },
{ "type": "Feature", "properties": { "name": "Kendugurigaon", "type": "village" }, "geometry": { "type": "Point", "coordinates": [ 94.6928251, 27.5827365 ] } },
{ "type": "Feature", "properties": { "name": "Dhekiani Bam", "type": "hamlet" }, "geometry": { "type": "Point", "coordinates": [ 94.6739997, 27.5938202 ] } },
{ "type": "Feature", "properties": { "name": "Kailashpur", "type": "hamlet" }, "geometry": { "type": "Point", "coordinates": [ 94.6812701, 27.6101012 ] } },
{ "type": "Feature", "properties": { "name": "Barati Gaon", "type": "village" }, "geometry": { "type": "Point", "coordinates": [ 94.691865, 27.5968851 ] } },
{ "type": "Feature", "properties": { "name": "Malani", "type": "hamlet" }, "geometry": { "type": "Point", "coordinates": [ 94.7225788, 27.6560344 ] } },
{ "type": "Feature", "properties": { "name": "Bhebeli Gaon", "type": "hamlet" }, "geometry": { "type": "Point", "coordinates": [ 94.6565888, 27.5467321 ] } },
{ "type": "Feature", "properties": { "name": "Akajan Miri", "type": "village" }, "geometry": { "type": "Point", "coordinates": [ 94.7364891, 27.5560142 ] } },
{ "type": "Feature", "properties": { "name": "Bormuria Chapori", "type": "village" }, "geometry": { "type": "Point", "coordinates": [ 94.7405403, 27.5445259 ] } },
{ "type": "Feature", "properties": { "name": "No. 2 Tangani Majgaon", "type": "village" }, "geometry": { "type": "Point", "coordinates": [ 94.7432561, 27.5169168 ] } },
{ "type": "Feature", "properties": { "name": "No. 1 Tangani Majgaon", "type": "village" }, "geometry": { "type": "Point", "coordinates": [ 94.7532702, 27.5277352 ] } },
{ "type": "Feature", "properties": { "name": "No. 2 Chila Pathar", "type": "hamlet" }, "geometry": { "type": "Point", "coordinates": [ 94.7598254, 27.6007304 ] } },
{ "type": "Feature", "properties": { "name": "No. 1 Chila Pathar", "type": "hamlet" }, "geometry": { "type": "Point", "coordinates": [ 94.7549378, 27.5957324 ] } },
{ "type": "Feature", "properties": { "name": "Bharaibpur", "type": "hamlet" }, "geometry": { "type": "Point", "coordinates": [ 94.7634887, 27.6001964 ] } },
{ "type": "Feature", "properties": { "name": "Silabaligaon", "type": "village" }, "geometry": { "type": "Point", "coordinates": [ 94.7657396, 27.5974529 ] } },
{ "type": "Feature", "properties": { "name": "Thekeraguri", "type": "hamlet" }, "geometry": { "type": "Point", "coordinates": [ 94.7566842, 27.5999259 ] } },
{ "type": "Feature", "properties": { "name": "Joriguri", "type": "village" }, "geometry": { "type": "Point", "coordinates": [ 94.7670088, 27.5688939 ] } },
{ "type": "Feature", "properties": { "name": "Memberchuk", "type": "hamlet" }, "geometry": { "type": "Point", "coordinates": [ 94.7437473, 27.5665753 ] } },
{ "type": "Feature", "properties": { "name": "Mishingpur", "type": "village" }, "geometry": { "type": "Point", "coordinates": [ 94.7472812, 27.5696466 ] } },
{ "type": "Feature", "properties": { "name": "Archipathar", "type": "village" }, "geometry": { "type": "Point", "coordinates": [ 94.7842022, 27.6587392 ] } },
{ "type": "Feature", "properties": { "name": "Jalakia Suti", "type": "village" }, "geometry": { "type": "Point", "coordinates": [ 94.7722828, 27.6282012 ] } },
{ "type": "Feature", "properties": { "name": "Majorbari", "type": "village" }, "geometry": { "type": "Point", "coordinates": [ 94.8487794, 27.5946012 ] } },
{ "type": "Feature", "properties": { "name": "Longkhong", "type": "village" }, "geometry": { "type": "Point", "coordinates": [ 95.5342544, 27.0819179 ] } },
{ "type": "Feature", "properties": { "name": "Baghjan Gaon", "type": "hamlet" }, "geometry": { "type": "Point", "coordinates": [ 95.4045009, 27.6062793 ] } },
{ "type": "Feature", "properties": { "name": "Lāhoāl Pātra", "type": "hamlet" }, "geometry": { "type": "Point", "coordinates": [ 95.0074375, 27.4564262 ] } },
{ "type": "Feature", "properties": { "name": "Nij Lahoāl", "type": "hamlet" }, "geometry": { "type": "Point", "coordinates": [ 94.98775, 27.4565262 ] } },
{ "type": "Feature", "properties": { "name": "Jojoli Panchali", "type": "hamlet" }, "geometry": { "type": "Point", "coordinates": [ 94.9386227, 27.0689473 ] } },
{ "type": "Feature", "properties": { "name": "Tingkhang", "type": "hamlet" }, "geometry": { "type": "Point", "coordinates": [ 95.1727366, 27.23229 ] } },
{ "type": "Feature", "properties": { "name": "Rājgarh ,786611", "type": "hamlet" }, "geometry": { "type": "Point", "coordinates": [ 95.1065585, 27.1812937 ] } },
{ "type": "Feature", "properties": { "name": "Pithāguti Grant", "type": "hamlet" }, "geometry": { "type": "Point", "coordinates": [ 95.0306171, 27.1615979 ] } },
{ "type": "Feature", "properties": { "name": "Nanābāt Namke", "type": "hamlet" }, "geometry": { "type": "Point", "coordinates": [ 95.0585389, 27.1727658 ] } },
{ "type": "Feature", "properties": { "name": "Ghurania", "type": "hamlet" }, "geometry": { "type": "Point", "coordinates": [ 95.284692, 27.2691546 ] } },
{ "type": "Feature", "properties": { "name": "Ghurania", "type": "hamlet" }, "geometry": { "type": "Point", "coordinates": [ 95.2660453, 27.2609625 ] } },
{ "type": "Feature", "properties": { "name": "Morān", "type": "town" }, "geometry": { "type": "Point", "coordinates": [ 94.9104273, 27.1857364 ] } },
{ "type": "Feature", "properties": { "name": "Moranhat", "type": "suburb" }, "geometry": { "type": "Point", "coordinates": [ 94.91606, 27.1800864 ] } },
{ "type": "Feature", "properties": { "name": "Bāmunbāri", "type": "village" }, "geometry": { "type": "Point", "coordinates": [ 94.9875945, 27.2429596 ] } },
{ "type": "Feature", "properties": { "name": "Kāsomārigaon", "type": "village" }, "geometry": { "type": "Point", "coordinates": [ 94.9335265, 27.1175646 ] } },
{ "type": "Feature", "properties": { "name": "Kāsomārigaon", "type": "hamlet" }, "geometry": { "type": "Point", "coordinates": [ 94.9317455, 27.1029339 ] } },
{ "type": "Feature", "properties": { "name": "2Rahan Pathār No.2", "type": "hamlet" }, "geometry": { "type": "Point", "coordinates": [ 95.136323, 27.1303028 ] } },
{ "type": "Feature", "properties": { "name": "Rahan Pathār No.1", "type": "hamlet" }, "geometry": { "type": "Point", "coordinates": [ 95.1234484, 27.1238288 ] } },
{ "type": "Feature", "properties": { "name": "Timānbārtani", "type": "hamlet" }, "geometry": { "type": "Point", "coordinates": [ 95.102334, 27.1128279 ] } },
{ "type": "Feature", "properties": { "name": "Chechasatra", "type": "hamlet" }, "geometry": { "type": "Point", "coordinates": [ 95.0969696, 27.1103259 ] } },
{ "type": "Feature", "properties": { "name": "Miri Pathār", "type": "hamlet" }, "geometry": { "type": "Point", "coordinates": [ 95.0870776, 27.099763 ] } },
{ "type": "Feature", "properties": { "name": "Longpatiya", "type": "hamlet" }, "geometry": { "type": "Point", "coordinates": [ 95.0930214, 27.0797997 ] } },
{ "type": "Feature", "properties": { "name": "Banhabārigaon", "type": "hamlet" }, "geometry": { "type": "Point", "coordinates": [ 95.0618005, 27.0868398 ] } },
{ "type": "Feature", "properties": { "name": "Hāthīmuriyā īgaom", "type": "hamlet" }, "geometry": { "type": "Point", "coordinates": [ 95.0528097, 27.082226 ] } },
{ "type": "Feature", "properties": { "name": "Sāpekhāti", "type": "hamlet" }, "geometry": { "type": "Point", "coordinates": [ 95.1597547, 27.1032681 ] } },
{ "type": "Feature", "properties": { "name": "Bhojogaon", "type": "hamlet" }, "geometry": { "type": "Point", "coordinates": [ 95.0486898, 27.0759977 ] } },
{ "type": "Feature", "properties": { "name": "Bhojogaon", "type": "hamlet" }, "geometry": { "type": "Point", "coordinates": [ 95.0400343, 27.0688948 ] } },
{ "type": "Feature", "properties": { "name": "Dillighāt", "type": "hamlet" }, "geometry": { "type": "Point", "coordinates": [ 95.3685808, 27.1409392 ] } },
{ "type": "Feature", "properties": { "name": "Nāmrup", "type": "hamlet" }, "geometry": { "type": "Point", "coordinates": [ 95.3160846, 27.1954895 ] } },
{ "type": "Feature", "properties": { "name": "Nārempathār", "type": "hamlet" }, "geometry": { "type": "Point", "coordinates": [ 95.3120184, 27.1823293 ] } },
{ "type": "Feature", "properties": { "name": "Nārempathār", "type": "hamlet" }, "geometry": { "type": "Point", "coordinates": [ 95.3012895, 27.1876356 ] } },
{ "type": "Feature", "properties": { "name": "Ghilāguri", "type": "hamlet" }, "geometry": { "type": "Point", "coordinates": [ 95.2557993, 27.1830737 ] } },
{ "type": "Feature", "properties": { "name": "Khariyābhetāgoan", "type": "hamlet" }, "geometry": { "type": "Point", "coordinates": [ 95.2169823, 27.1585815 ] } },
{ "type": "Feature", "properties": { "name": "Santipu", "type": "hamlet" }, "geometry": { "type": "Point", "coordinates": [ 95.2776486, 27.1950315 ] } },
{ "type": "Feature", "properties": { "name": "Sapekhati Chāriali", "type": "hamlet" }, "geometry": { "type": "Point", "coordinates": [ 95.176245, 27.0819251 ] } },
{ "type": "Feature", "properties": { "name": "Namrup", "type": "town" }, "geometry": { "type": "Point", "coordinates": [ 95.3567576, 27.1932851 ] } },
{ "type": "Feature", "properties": { "name": "Sāpekhāti", "type": "hamlet" }, "geometry": { "type": "Point", "coordinates": [ 95.1580918, 27.1132863 ] } },
{ "type": "Feature", "properties": { "name": "Titlāgarh", "type": "hamlet" }, "geometry": { "type": "Point", "coordinates": [ 95.3181338, 27.1572259 ] } },
{ "type": "Feature", "properties": { "name": "Barhat Bagisa", "type": "hamlet" }, "geometry": { "type": "Point", "coordinates": [ 95.3192228, 27.1544957 ] } },
{ "type": "Feature", "properties": { "name": "Shantipur", "type": "suburb" }, "geometry": { "type": "Point", "coordinates": [ 95.3126085, 27.1973981 ] } },
{ "type": "Feature", "properties": { "name": "Sāpekhāti", "type": "village" }, "geometry": { "type": "Point", "coordinates": [ 95.1787139, 27.0799364 ] } },
{ "type": "Feature", "properties": { "name": "Parbatpur", "type": "village" }, "geometry": { "type": "Point", "coordinates": [ 95.3657913, 27.1867194 ] } },
{ "type": "Feature", "properties": { "name": "Donangiaon", "type": "hamlet" }, "geometry": { "type": "Point", "coordinates": [ 95.347209, 27.1949456 ] } },
{ "type": "Feature", "properties": { "name": "Sarma Tiniāli", "type": "suburb" }, "geometry": { "type": "Point", "coordinates": [ 95.354923, 27.1857746 ] } },
{ "type": "Feature", "properties": { "name": "Sonāri Tiniāli", "type": "suburb" }, "geometry": { "type": "Point", "coordinates": [ 95.3484106, 27.1916056 ] } },
{ "type": "Feature", "properties": { "name": "Kherbartāni", "type": "hamlet" }, "geometry": { "type": "Point", "coordinates": [ 95.2236128, 27.1929225 ] } },
{ "type": "Feature", "properties": { "name": "Godhāchalong", "type": "hamlet" }, "geometry": { "type": "Point", "coordinates": [ 95.2405643, 27.1988581 ] } },
{ "type": "Feature", "properties": { "name": "Shil Grant", "type": "hamlet" }, "geometry": { "type": "Point", "coordinates": [ 95.2393842, 27.1937432 ] } },
{ "type": "Feature", "properties": { "name": "Bartāni", "type": "hamlet" }, "geometry": { "type": "Point", "coordinates": [ 95.2341914, 27.1974267 ] } },
{ "type": "Feature", "properties": { "name": "Mamorāli", "type": "hamlet" }, "geometry": { "type": "Point", "coordinates": [ 95.2608418, 27.193705 ] } },
{ "type": "Feature", "properties": { "name": "Mamorāli", "type": "hamlet" }, "geometry": { "type": "Point", "coordinates": [ 95.2526665, 27.1955373 ] } },
{ "type": "Feature", "properties": { "name": "Palongdhepa", "type": "hamlet" }, "geometry": { "type": "Point", "coordinates": [ 95.3026199, 27.2038392 ] } },
{ "type": "Feature", "properties": { "name": "Barhela", "type": "hamlet" }, "geometry": { "type": "Point", "coordinates": [ 95.2826321, 27.2023792 ] } },
{ "type": "Feature", "properties": { "name": "Barhela", "type": "hamlet" }, "geometry": { "type": "Point", "coordinates": [ 95.2701437, 27.1983905 ] } },
{ "type": "Feature", "properties": { "name": "Bortony No 2", "type": "hamlet" }, "geometry": { "type": "Point", "coordinates": [ 95.2550805, 27.200528 ] } },
{ "type": "Feature", "properties": { "name": "Kābola", "type": "hamlet" }, "geometry": { "type": "Point", "coordinates": [ 95.2255654, 27.1830832 ] } },
{ "type": "Feature", "properties": { "name": "Chrni", "type": "hamlet" }, "geometry": { "type": "Point", "coordinates": [ 95.2062106, 27.1783685 ] } },
{ "type": "Feature", "properties": { "name": "Shimulguri", "type": "hamlet" }, "geometry": { "type": "Point", "coordinates": [ 95.19472, 27.1760683 ] } },
{ "type": "Feature", "properties": { "name": "Māhamara Alikinār", "type": "hamlet" }, "geometry": { "type": "Point", "coordinates": [ 95.1977992, 27.171315 ] } },
{ "type": "Feature", "properties": { "name": "Got Pathār", "type": "hamlet" }, "geometry": { "type": "Point", "coordinates": [ 95.195589, 27.1652825 ] } },
{ "type": "Feature", "properties": { "name": "Kalyānpur", "type": "hamlet" }, "geometry": { "type": "Point", "coordinates": [ 95.1829934, 27.1648434 ] } },
{ "type": "Feature", "properties": { "name": "Chapātali", "type": "hamlet" }, "geometry": { "type": "Point", "coordinates": [ 95.1762771, 27.1517082 ] } },
{ "type": "Feature", "properties": { "name": "Chapātali", "type": "hamlet" }, "geometry": { "type": "Point", "coordinates": [ 95.1715565, 27.1533693 ] } },
{ "type": "Feature", "properties": { "name": "Bagādād", "type": "hamlet" }, "geometry": { "type": "Point", "coordinates": [ 95.1566434, 27.1442426 ] } },
{ "type": "Feature", "properties": { "name": "Dimaugaon", "type": "hamlet" }, "geometry": { "type": "Point", "coordinates": [ 94.7381973, 27.1277438 ] } },
{ "type": "Feature", "properties": { "name": "Khowāng", "type": "village" }, "geometry": { "type": "Point", "coordinates": [ 94.890418, 27.2767549 ] } },
{ "type": "Feature", "properties": { "name": "Tipamia", "type": "village" }, "geometry": { "type": "Point", "coordinates": [ 95.1766862, 27.2637364 ] } },
{ "type": "Feature", "properties": { "name": "Bogaigāon", "type": "village" }, "geometry": { "type": "Point", "coordinates": [ 94.796417, 27.2281641 ] } },
{ "type": "Feature", "properties": { "name": "Burhi Khow", "type": "village" }, "geometry": { "type": "Point", "coordinates": [ 94.9251234, 27.2898193 ] } },
{ "type": "Feature", "properties": { "name": "Khowāng", "type": "village" }, "geometry": { "type": "Point", "coordinates": [ 94.8757096, 27.2754299 ] } },
{ "type": "Feature", "properties": { "name": "Amguri Bali", "type": "village" }, "geometry": { "type": "Point", "coordinates": [ 94.7329012, 27.4549471 ] } },
{ "type": "Feature", "properties": { "name": "Nakapur", "type": "village" }, "geometry": { "type": "Point", "coordinates": [ 95.186892, 27.5494505 ] } },
{ "type": "Feature", "properties": { "name": "Deopani", "type": "village" }, "geometry": { "type": "Point", "coordinates": [ 95.3292307, 27.1260169 ] } }
]
}
