{
"type": "FeatureCollection",
"name": "osm_facilities",
"crs": { "type": "name", "properties": { "name": "urn:ogc:def:crs:OGC:1.3:CRS84" } },
"features": [
{ "type": "Feature", "properties": { "name": "St. Xavier's Higher Secondary School", "type": "school" }, "geometry": { "type": "Point", "coordinates": [ 95.319561, 27.364888 ] } },
{ "type": "Feature", "properties": { "name": "Madhya Zaloni Primary School", "type": "school" }, "geometry": { "type": "Point", "coordinates": [ 95.3262363, 27.3591795 ] } },
{ "type": "Feature", "properties": { "name": "Tipling Ghat High School", "type": "school" }, "geometry": { "type": "Point", "coordinates": [ 95.3284261, 27.3344746 ] } },
{ "type": "Feature", "properties": { "name": "Jatiyo Vidyalaya", "type": "school" }, "geometry": { "type": "Point", "coordinates": [ 95.334356, 27.330619 ] } },
{ "type": "Feature", "properties": { "name": "", "type": "school" }, "geometry": { "type": "Point", "coordinates": [ 94.9138784, 27.1833792 ] } },
{ "type": "Feature", "properties": { "name": "Duliajan College", "type": "college" }, "geometry": { "type": "Point", "coordinates": [ 95.3137351, 27.3451916 ] } },
{ "type": "Feature", "properties": { "name": "Paschim Zaloni L.P.School", "type": "school" }, "geometry": { "type": "Point", "coordinates": [ 95.3177778, 27.3575 ] } },
{ "type": "Feature", "properties": { "name": "Rashtra Bhasha School", "type": "school" }, "geometry": { "type": "Point", "coordinates": [ 95.3219444, 27.3530556 ] } },
{ "type": "Feature", "properties": { "name": "Life Care Medical", "type": "clinic" }, "geometry": { "type": "Point", "coordinates": [ 95.3179461, 27.3460873 ] } },
{ "type": "Feature", "properties": { "name": "Kendriya Vidhyalaya", "type": "school" }, "geometry": { "type": "Point", "coordinates": [ 95.3453636, 27.3543351 ] } },
{ "type": "Feature", "properties": { "name": "Poorab Zaloni Primary School", "type": "school" }, "geometry": { "type": "Point", "coordinates": [ 95.3321189, 27.3554833 ] } },
{ "type": "Feature", "properties": { "name": "Kendriya Vidhyalaya", "type": "school" }, "geometry": { "type": "Point", "coordinates": [ 95.358721, 27.4833465 ] } },
{ "type": "Feature", "properties": { "name": "St Luke Hospital", "type": "hospital" }, "geometry": { "type": "Point", "coordinates": [ 95.3612101, 27.4648038 ] } },
{ "type": "Feature", "properties": { "name": "Pinewood Hospital", "type": "hospital" }, "geometry": { "type": "Point", "coordinates": [ 95.3516507, 27.4970136 ] } },
{ "type": "Feature", "properties": { "name": "Bengali Girls High School", "type": "school" }, "geometry": { "type": "Point", "coordinates": [ 95.3509533, 27.4894664 ] } },
{ "type": "Feature", "properties": { "name": "Sarvajanin HS Valika Vidyalaya", "type": "school" }, "geometry": { "type": "Point", "coordinates": [ 95.3568437, 27.4894253 ] } },
{ "type": "Feature", "properties": { "name": "Budding Buds Senior Secondary School", "type": "school" }, "geometry": { "type": "Point", "coordinates": [ 95.3583245, 27.4889778 ] } },
{ "type": "Feature", "properties": { "name": "Tinsukia Railway High School", "type": "school" }, "geometry": { "type": "Point", "coordinates": [ 95.3578091, 27.4858878 ] } },
{ "type": "Feature", "properties": { "name": "Pinewood Residential School", "type": "school" }, "geometry": { "type": "Point", "coordinates": [ 95.3498054, 27.4978415 ] } },
{ "type": "Feature", "properties": { "name": "Adarsha Prarthamic Vidyalaya", "type": "school" }, "geometry": { "type": "Point", "coordinates": [ 95.3556204, 27.4897234 ] } },
{ "type": "Feature", "properties": { "name": "Bipin Bora Middle English School", "type": "school" }, "geometry": { "type": "Point", "coordinates": [ 95.3648686, 27.4941965 ] } },
{ "type": "Feature", "properties": { "name": "Gobardhan Gowenka Primary School", "type": "school" }, "geometry": { "type": "Point", "coordinates": [ 95.3648579, 27.4938729 ] } },
{ "type": "Feature", "properties": { "name": "Life Line Hospital - Tinsukia", "type": "hospital" }, "geometry": { "type": "Point", "coordinates": [ 95.3609741, 27.4925976 ] } },
{ "type": "Feature", "properties": { "name": "Bipin Bora High School", "type": "school" }, "geometry": { "type": "Point", "coordinates": [ 95.3644073, 27.4940062 ] } },
{ "type": "Feature", "properties": { "name": "Law College", "type": "college" }, "geometry": { "type": "Point", "coordinates": [ 95.3622697, 27.4903575 ] } },
{ "type": "Feature", "properties": { "name": "Senairam Higher Secondary School", "type": "school" }, "geometry": { "type": "Point", "coordinates": [ 95.3608239, 27.4910178 ] } },
{ "type": "Feature", "properties": { "name": "Holy Child School", "type": "school" }, "geometry": { "type": "Point", "coordinates": [ 95.3369093, 27.4882291 ] } },
{ "type": "Feature", "properties": { "name": "Sarbananda High School", "type": "school" }, "geometry": { "type": "Point", "coordinates": [ 95.3422415, 27.4974037 ] } },
{ "type": "Feature", "properties": { "name": "L.G.B. Civil Hospital,Tinsukia", "type": "hospital" }, "geometry": { "type": "Point", "coordinates": [ 95.3587625, 27.4991191 ] } },
{ "type": "Feature", "properties": { "name": "Aditya Hospital", "type": "hospital" }, "geometry": { "type": "Point", "coordinates": [ 95.3484441, 27.4941647 ] } },
{ "type": "Feature", "properties": { "name": "Lal Bahadur Shastri School", "type": "school" }, "geometry": { "type": "Point", "coordinates": [ 95.3124905, 27.3648786 ] } },
{ "type": "Feature", "properties": { "name": "Don Bosco High School", "type": "school" }, "geometry": { "type": "Point", "coordinates": [ 95.3615642, 27.4997924 ] } },
{ "type": "Feature", "properties": { "name": "Hindi English High School", "type": "school" }, "geometry": { "type": "Point", "coordinates": [ 95.3533583, 27.4864192 ] } },
{ "type": "Feature", "properties": { "name": "Dr. S.K.Dey Hospital", "type": "hospital" }, "geometry": { "type": "Point", "coordinates": [ 95.3522515, 27.4889906 ] } },
{ "type": "Feature", "properties": { "name": "DPS", "type": "school" }, "geometry": { "type": "Point", "coordinates": [ 95.3368649, 27.3540669 ] } },
{ "type": "Feature", "properties": { "name": "St. Stephen's High School", "type": "school" }, "geometry": { "type": "Point", "coordinates": [ 95.355792, 27.5079288 ] } },
{ "type": "Feature", "properties": { "name": "Dibrugarh Kanoi Law College", "type": "college" }, "geometry": { "type": "Point", "coordinates": [ 94.9161565, 27.4828896 ] } },
{ "type": "Feature", "properties": { "name": "Vivekananda Kendriya Vidyalaya", "type": "college" }, "geometry": { "type": "Point", "coordinates": [ 95.311475, 27.4777712 ] } },
{ "type": "Feature", "properties": { "name": "Makum College", "type": "college" }, "geometry": { "type": "Point", "coordinates": [ 95.4247797, 27.4866741 ] } },
{ "type": "Feature", "properties": { "name": "Mittal Pharmacy", "type": "hospital" }, "geometry": { "type": "Point", "coordinates": [ 95.3614383, 27.4882355 ] } },
{ "type": "Feature", "properties": { "name": "Jeevan Jyoti Nursing Home", "type": "clinic" }, "geometry": { "type": "Point", "coordinates": [ 95.3657552, 27.4963286 ] } },
{ "type": "Feature", "properties": { "name": "Agarwal Hospital and Research Centre", "type": "hospital" }, "geometry": { "type": "Point", "coordinates": [ 95.3797308, 27.4860869 ] } },
{ "type": "Feature", "properties": { "name": "Bator Pukhuri L.P School", "type": "school" }, "geometry": { "type": "Point", "coordinates": [ 95.3418321, 27.4983391 ] } },
{ "type": "Feature", "properties": { "name": "Sristi Hospitals And Research Centre Pvt Ltd", "type": "hospital" }, "geometry": { "type": "Point", "coordinates": [ 94.9279489, 27.4930354 ] } },
{ "type": "Feature", "properties": { "name": "Biroja Hospital", "type": "hospital" }, "geometry": { "type": "Point", "coordinates": [ 95.3517164, 27.4913069 ] } },
{ "type": "Feature", "properties": { "name": "Dr Damani's Nursing Home", "type": "clinic" }, "geometry": { "type": "Point", "coordinates": [ 94.9231866, 27.4898995 ] } },
{ "type": "Feature", "properties": { "name": "Borthakur Nursing Home and Research Centre", "type": "clinic" }, "geometry": { "type": "Point", "coordinates": [ 95.3611846, 27.5034979 ] } },
{ "type": "Feature", "properties": { "name": "H M Hospital and Research Center", "type": "hospital" }, "geometry": { "type": "Point", "coordinates": [ 94.913941, 27.1857364 ] } },
{ "type": "Feature", "properties": { "name": "Brahmaputra Diagnostic and Hospital Ltd", "type": "hospital" }, "geometry": { "type": "Point", "coordinates": [ 94.9271375, 27.4915127 ] } },
{ "type": "Feature", "properties": { "name": "Vincenza Gerosa Hospital", "type": "hospital" }, "geometry": { "type": "Point", "coordinates": [ 94.9272823, 27.4704798 ] } },
{ "type": "Feature", "properties": { "name": "Srimanta Sankardeva Hospital And Research Institute", "type": "hospital" }, "geometry": { "type": "Point", "coordinates": [ 94.9111354, 27.4729107 ] } },
{ "type": "Feature", "properties": { "name": "Aditya Diagnostics and Hospitals", "type": "hospital" }, "geometry": { "type": "Point", "coordinates": [ 94.9312493, 27.4915008 ] } },
{ "type": "Feature", "properties": { "name": "Urovision Diagnostics and Reaearch Center Pvt Ltd", "type": "" }, "geometry": { "type": "Point", "coordinates": [ 94.9287495, 27.4872572 ] } },
{ "type": "Feature", "properties": { "name": "H.M.Poly Clinic and Diagnostics Centre", "type": "clinic" }, "geometry": { "type": "Point", "coordinates": [ 94.9305928, 27.4921319 ] } },
{ "type": "Feature", "properties": { "name": "Jj Memorial Diagnostics And Hospitals Pvt Ltd", "type": "clinic" }, "geometry": { "type": "Point", "coordinates": [ 94.923597, 27.4899494 ] } },
{ "type": "Feature", "properties": { "name": "Drishti Netralaya", "type": "clinic" }, "geometry": { "type": "Point", "coordinates": [ 94.8955263, 27.4779366 ] } },
{ "type": "Feature", "properties": { "name": "CHC, Rajgarh -HEALTH CENTRE", "type": "" }, "geometry": { "type": "Point", "coordinates": [ 95.1195565, 27.1846019 ] } },
{ "type": "Feature", "properties": { "name": "Medicare Diagnostic And Hospital", "type": "hospital" }, "geometry": { "type": "Point", "coordinates": [ 94.9235326, 27.4896615 ] } },
{ "type": "Feature", "properties": { "name": "CHC, Deomali", "type": "" }, "geometry": { "type": "Point", "coordinates": [ 95.467046, 27.194236 ] } },
{ "type": "Feature", "properties": { "name": "St. Lukes Hospital", "type": "hospital" }, "geometry": { "type": "Point", "coordinates": [ 95.1650112, 27.4765764 ] } },
{ "type": "Feature", "properties": { "name": "Deepling Tea Estate Hospital", "type": "hospital" }, "geometry": { "type": "Point", "coordinates": [ 95.03788, 27.108545 ] } },
{ "type": "Feature", "properties": { "name": "Naharani CHC", "type": "" }, "geometry": { "type": "Point", "coordinates": [ 95.233284, 27.25715 ] } },
{ "type": "Feature", "properties": { "name": "Bokel Tea Estate Hospital", "type": "hospital" }, "geometry": { "type": "Point", "coordinates": [ 94.9771994, 27.45783 ] } },
{ "type": "Feature", "properties": { "name": "Mini PHC, Dangarikumar", "type": "" }, "geometry": { "type": "Point", "coordinates": [ 95.3401673, 27.1419089 ] } },
{ "type": "Feature", "properties": { "name": "Romai Tea Estate", "type": "hospital" }, "geometry": { "type": "Point", "coordinates": [ 95.0457564, 27.386318 ] } },
{ "type": "Feature", "properties": { "name": "Khumtai Tea Estate Hospital", "type": "hospital" }, "geometry": { "type": "Point", "coordinates": [ 94.9448362, 27.1763415 ] } },
{ "type": "Feature", "properties": { "name": "Namoni Borpathar MPHC", "type": "" }, "geometry": { "type": "Point", "coordinates": [ 94.8577512, 27.4313105 ] } },
{ "type": "Feature", "properties": { "name": "Greenwood Tea Estate Hospital", "type": "hospital" }, "geometry": { "type": "Point", "coordinates": [ 95.017022, 27.509819 ] } },
{ "type": "Feature", "properties": { "name": "PHC, Sapekhati", "type": "" }, "geometry": { "type": "Point", "coordinates": [ 95.1630331, 27.1007084 ] } },
{ "type": "Feature", "properties": { "name": "Assam Medical College and Hospital", "type": "hospital" }, "geometry": { "type": "Point", "coordinates": [ 94.940004, 27.487594 ] } },
{ "type": "Feature", "properties": { "name": "Mini PHC, Barekuri", "type": "" }, "geometry": { "type": "Point", "coordinates": [ 95.422837, 27.535831 ] } },
{ "type": "Feature", "properties": { "name": "Tengakhat PHC", "type": "" }, "geometry": { "type": "Point", "coordinates": [ 95.168097, 27.380258 ] } },
{ "type": "Feature", "properties": { "name": "Bengenagarah Hospital", "type": "hospital" }, "geometry": { "type": "Point", "coordinates": [ 94.543537, 27.350498 ] } },
{ "type": "Feature", "properties": { "name": "Mini PHC, Nitaipukhuri", "type": "" }, "geometry": { "type": "Point", "coordinates": [ 94.7606607, 27.2229997 ] } },
{ "type": "Feature", "properties": { "name": "Maijan Tea Estate Hospital", "type": "hospital" }, "geometry": { "type": "Point", "coordinates": [ 94.9757439, 27.5094432 ] } },
{ "type": "Feature", "properties": { "name": "Dibrugarh State Dispensary", "type": "clinic" }, "geometry": { "type": "Point", "coordinates": [ 94.9123192, 27.4875313 ] } },
{ "type": "Feature", "properties": { "name": "Ghoramora State Dispensary", "type": "clinic" }, "geometry": { "type": "Point", "coordinates": [ 95.0442162, 27.4082434 ] } },
{ "type": "Feature", "properties": { "name": "Khowang BPHC", "type": "" }, "geometry": { "type": "Point", "coordinates": [ 94.889479, 27.276581 ] } },
{ "type": "Feature", "properties": { "name": "Khanamukh MPHC", "type": "" }, "geometry": { "type": "Point", "coordinates": [ 94.7087281, 27.6458164 ] } },
{ "type": "Feature", "properties": { "name": "Dhemaji Civil Hospital", "type": "hospital" }, "geometry": { "type": "Point", "coordinates": [ 94.5743654, 27.4580357 ] } },
{ "type": "Feature", "properties": { "name": "Mohokutie Tea Estate Hospital", "type": "hospital" }, "geometry": { "type": "Point", "coordinates": [ 94.8081909, 27.0903275 ] } },
{ "type": "Feature", "properties": { "name": "Mini PHC, Borbaruakhat", "type": "" }, "geometry": { "type": "Point", "coordinates": [ 95.229484, 27.115526 ] } },
{ "type": "Feature", "properties": { "name": "Lengeri MPHC", "type": "" }, "geometry": { "type": "Point", "coordinates": [ 95.0282934, 27.2777142 ] } },
{ "type": "Feature", "properties": { "name": "Moranhat Government Hospital", "type": "hospital" }, "geometry": { "type": "Point", "coordinates": [ 94.911762, 27.181087 ] } },
{ "type": "Feature", "properties": { "name": "Longpatia Hospital", "type": "hospital" }, "geometry": { "type": "Point", "coordinates": [ 95.0968389, 27.0797791 ] } },
{ "type": "Feature", "properties": { "name": "Rohmoria MPHC", "type": "" }, "geometry": { "type": "Point", "coordinates": [ 95.102168, 27.514687 ] } },
{ "type": "Feature", "properties": { "name": "Barbaruah PHC", "type": "" }, "geometry": { "type": "Point", "coordinates": [ 94.8797221, 27.4026401 ] } },
{ "type": "Feature", "properties": { "name": "Panitola PHC", "type": "" }, "geometry": { "type": "Point", "coordinates": [ 95.223658, 27.498278 ] } },
{ "type": "Feature", "properties": { "name": "Dikom Tea estate hospital", "type": "hospital" }, "geometry": { "type": "Point", "coordinates": [ 95.0850978, 27.4603111 ] } },
{ "type": "Feature", "properties": { "name": "Tingkhong MPHC", "type": "" }, "geometry": { "type": "Point", "coordinates": [ 95.167491, 27.24018 ] } },
{ "type": "Feature", "properties": { "name": "Lakhipathar MPHC", "type": "" }, "geometry": { "type": "Point", "coordinates": [ 94.5545426, 27.5508222 ] } },
{ "type": "Feature", "properties": { "name": "Lahoal PHC", "type": "" }, "geometry": { "type": "Point", "coordinates": [ 95.0024418, 27.4598919 ] } },
{ "type": "Feature", "properties": { "name": "Machkhowa MPHC", "type": "" }, "geometry": { "type": "Point", "coordinates": [ 94.55405, 27.335836 ] } },
{ "type": "Feature", "properties": { "name": "CHC, Demow", "type": "hospital" }, "geometry": { "type": "Point", "coordinates": [ 94.739596, 27.127612 ] } },
{ "type": "Feature", "properties": { "name": "Kacharipathar MPHC", "type": "" }, "geometry": { "type": "Point", "coordinates": [ 95.2825922, 27.36409 ] } },
{ "type": "Feature", "properties": { "name": "Nigam hospital", "type": "hospital" }, "geometry": { "type": "Point", "coordinates": [ 95.3130304, 27.2236641 ] } },
{ "type": "Feature", "properties": { "name": "Namrup PHC", "type": "" }, "geometry": { "type": "Point", "coordinates": [ 95.3570238, 27.1974533 ] } },
{ "type": "Feature", "properties": { "name": "Hazelbank Tea Estate Hospital", "type": "hospital" }, "geometry": { "type": "Point", "coordinates": [ 95.0868214, 27.4922491 ] } },
{ "type": "Feature", "properties": { "name": "Mini PHC, Palengi", "type": "" }, "geometry": { "type": "Point", "coordinates": [ 94.6873834, 27.0930974 ] } },
{ "type": "Feature", "properties": { "name": "Naharkatia CHC", "type": "" }, "geometry": { "type": "Point", "coordinates": [ 95.3305205, 27.2769362 ] } },
{ "type": "Feature", "properties": { "name": "Urban Health Centre, Dhemaji", "type": "" }, "geometry": { "type": "Point", "coordinates": [ 94.5654301, 27.4793669 ] } },
{ "type": "Feature", "properties": { "name": "Sissiborgaon BPHC", "type": "" }, "geometry": { "type": "Point", "coordinates": [ 94.6828668, 27.5571467 ] } },
{ "type": "Feature", "properties": { "name": "Hingrijan Tea Estate Hospital", "type": "hospital" }, "geometry": { "type": "Point", "coordinates": [ 94.936707, 27.148293 ] } },
{ "type": "Feature", "properties": { "name": "Mini PHC, Borhat", "type": "" }, "geometry": { "type": "Point", "coordinates": [ 95.2752505, 27.1614877 ] } },
{ "type": "Feature", "properties": { "name": "Moran Tiloi CHC", "type": "" }, "geometry": { "type": "Point", "coordinates": [ 94.892797, 27.226962 ] } },
{ "type": "Feature", "properties": { "name": "Hapjan PHC", "type": "" }, "geometry": { "type": "Point", "coordinates": [ 95.42785, 27.500133 ] } },
{ "type": "Feature", "properties": { "name": "Rongchongi MPHC", "type": "" }, "geometry": { "type": "Point", "coordinates": [ 95.2000273, 27.4355139 ] } },
{ "type": "Feature", "properties": { "name": "PHC, Bamrajabari", "type": "" }, "geometry": { "type": "Point", "coordinates": [ 94.698319, 27.21643 ] } },
{ "type": "Feature", "properties": { "name": "Ganeshbari Tea Hospital", "type": "hospital" }, "geometry": { "type": "Point", "coordinates": [ 95.0527014, 27.4861949 ] } },
{ "type": "Feature", "properties": { "name": "Dr. Kalyan Khound", "type": "doctors" }, "geometry": { "type": "Point", "coordinates": [ 94.9326787, 27.491521 ] } },
{ "type": "Feature", "properties": { "name": "Medicare Hospitals", "type": "hospital" }, "geometry": { "type": "Point", "coordinates": [ 94.9234647, 27.4899224 ] } },
{ "type": "Feature", "properties": { "name": "Dr. Silpika C. Bora", "type": "doctors" }, "geometry": { "type": "Point", "coordinates": [ 94.9303813, 27.4705115 ] } },
{ "type": "Feature", "properties": { "name": "Dr. Santanu Bora", "type": "doctors" }, "geometry": { "type": "Point", "coordinates": [ 94.929577, 27.471864 ] } },
{ "type": "Feature", "properties": { "name": "Dr. Badal Dutta Smile Care Dental Clinic", "type": "dentist" }, "geometry": { "type": "Point", "coordinates": [ 95.3454183, 27.4832155 ] } },
{ "type": "Feature", "properties": { "name": "Astha Hospital", "type": "hospital" }, "geometry": { "type": "Point", "coordinates": [ 94.9163573, 27.4891852 ] } },
{ "type": "Feature", "properties": { "name": "Archana Trauma & Orthopaedics Hospital & Research Centre", "type": "hospital" }, "geometry": { "type": "Point", "coordinates": [ 94.929957, 27.490729 ] } },
{ "type": "Feature", "properties": { "name": "Dr. Saikia's Clinic", "type": "clinic" }, "geometry": { "type": "Point", "coordinates": [ 95.363006, 27.4931921 ] } },
{ "type": "Feature", "properties": { "name": "Dr. Paul's Multiplicity Clinic", "type": "clinic" }, "geometry": { "type": "Point", "coordinates": [ 94.9183841, 27.4885523 ] } },
{ "type": "Feature", "properties": { "name": "Nahortoli Tea Garden Hospital", "type": "hospital" }, "geometry": { "type": "Point", "coordinates": [ 95.0821294, 27.4699353 ] } },
{ "type": "Feature", "properties": { "name": "Saishav Clinic", "type": "clinic" }, "geometry": { "type": "Point", "coordinates": [ 94.9302172, 27.4874573 ] } },
{ "type": "Feature", "properties": { "name": "Todi Diagnostic Center", "type": "clinic" }, "geometry": { "type": "Point", "coordinates": [ 95.3698187, 27.4873926 ] } },
{ "type": "Feature", "properties": { "name": "Aditya Pain and Spine Clinic", "type": "clinic" }, "geometry": { "type": "Point", "coordinates": [ 94.931213, 27.491599 ] } },
{ "type": "Feature", "properties": { "name": "Sewpur T.E. Hospital", "type": "hospital" }, "geometry": { "type": "Point", "coordinates": [ 95.362283, 27.463452 ] } },
{ "type": "Feature", "properties": { "name": "R.C. Agarwal Memorial Hospital", "type": "hospital" }, "geometry": { "type": "Point", "coordinates": [ 95.379983, 27.485901 ] } },
{ "type": "Feature", "properties": { "name": "Oro Dental Care Clinic", "type": "dentist" }, "geometry": { "type": "Point", "coordinates": [ 95.3607848, 27.4920841 ] } },
{ "type": "Feature", "properties": { "name": "Sanjeev Kakati Clinic", "type": "clinic" }, "geometry": { "type": "Point", "coordinates": [ 94.9220454, 27.4895621 ] } },
{ "type": "Feature", "properties": { "name": "M.F. Hospital & Research Centre", "type": "hospital" }, "geometry": { "type": "Point", "coordinates": [ 94.9001477, 27.4795977 ] } },
{ "type": "Feature", "properties": { "name": "Dr. Narayan Upadhayay", "type": "doctors" }, "geometry": { "type": "Point", "coordinates": [ 94.9303907, 27.4894536 ] } },
{ "type": "Feature", "properties": { "name": "Child Care Clinic", "type": "clinic" }, "geometry": { "type": "Point", "coordinates": [ 95.3521161, 27.4905497 ] } },
{ "type": "Feature", "properties": { "name": "Sai Diagnostics", "type": "clinic" }, "geometry": { "type": "Point", "coordinates": [ 94.910468, 27.474194 ] } },
{ "type": "Feature", "properties": { "name": "Dr. Nazim & Dr. Nasim", "type": "doctors" }, "geometry": { "type": "Point", "coordinates": [ 94.9310708, 27.4702004 ] } },
{ "type": "Feature", "properties": { "name": "Heramba Bordoloi Eye Centre", "type": "clinic" }, "geometry": { "type": "Point", "coordinates": [ 94.9299334, 27.4705285 ] } },
{ "type": "Feature", "properties": { "name": "Dr. Kayal's Clinic", "type": "clinic" }, "geometry": { "type": "Point", "coordinates": [ 94.904118, 27.482309 ] } },
{ "type": "Feature", "properties": { "name": "G.M. Hospital", "type": "hospital" }, "geometry": { "type": "Point", "coordinates": [ 94.9329053, 27.491458 ] } },
{ "type": "Feature", "properties": { "name": "BRC Health Care Clinic", "type": "clinic" }, "geometry": { "type": "Point", "coordinates": [ 95.3111099, 27.3642023 ] } },
{ "type": "Feature", "properties": { "name": "H & S Dental Aesthetic Clinic", "type": "dentist" }, "geometry": { "type": "Point", "coordinates": [ 95.350428, 27.491681 ] } },
{ "type": "Feature", "properties": { "name": "Dr. Priyanka Chowdhury Dutta", "type": "doctors" }, "geometry": { "type": "Point", "coordinates": [ 94.9033175, 27.4706173 ] } },
{ "type": "Feature", "properties": { "name": "Dr. Parthapratim Dutta", "type": "doctors" }, "geometry": { "type": "Point", "coordinates": [ 94.9061227, 27.4521463 ] } },
{ "type": "Feature", "properties": { "name": "Dr. Nitoo Baruah", "type": "doctors" }, "geometry": { "type": "Point", "coordinates": [ 95.3662399, 27.4823914 ] } },
{ "type": "Feature", "properties": { "name": "APL Hospital", "type": "hospital" }, "geometry": { "type": "Point", "coordinates": [ 95.3663889, 27.1843094 ] } },
{ "type": "Feature", "properties": { "name": "Chasma Ghar & Eye Clinic", "type": "clinic" }, "geometry": { "type": "Point", "coordinates": [ 95.3572597, 27.1924708 ] } },
{ "type": "Feature", "properties": { "name": "Drishti Netralaya Clinic & Opticals", "type": "clinic" }, "geometry": { "type": "Point", "coordinates": [ 94.904126, 27.4804835 ] } },
{ "type": "Feature", "properties": { "name": "Dental Plus", "type": "dentist" }, "geometry": { "type": "Point", "coordinates": [ 95.317058, 27.351215 ] } },
{ "type": "Feature", "properties": { "name": "Dr. S.K. Dey", "type": "doctors" }, "geometry": { "type": "Point", "coordinates": [ 95.3519789, 27.4893893 ] } },
{ "type": "Feature", "properties": { "name": "Doctor's Chamber & Pharmacy", "type": "clinic" }, "geometry": { "type": "Point", "coordinates": [ 94.9095726, 27.197128 ] } },
{ "type": "Feature", "properties": { "name": "Gaurav Drug House & Physiotherapy", "type": "clinic" }, "geometry": { "type": "Point", "coordinates": [ 95.3544089, 27.1926198 ] } },
{ "type": "Feature", "properties": { "name": "Dr. Chetia", "type": "doctors" }, "geometry": { "type": "Point", "coordinates": [ 95.356023, 27.507346 ] } },
{ "type": "Feature", "properties": { "name": "Dr. K.Jugal Phukan", "type": "doctors" }, "geometry": { "type": "Point", "coordinates": [ 95.3544527, 27.5020796 ] } },
{ "type": "Feature", "properties": { "name": "Dr. Sameer Mittal,Dental Clinic", "type": "dentist" }, "geometry": { "type": "Point", "coordinates": [ 95.348327, 27.494246 ] } },
{ "type": "Feature", "properties": { "name": "Rahman's Multi Speciality Dental Clinic", "type": "dentist" }, "geometry": { "type": "Point", "coordinates": [ 95.323162, 27.3464185 ] } },
{ "type": "Feature", "properties": { "name": "Doctor Clinic", "type": "clinic" }, "geometry": { "type": "Point", "coordinates": [ 95.314113, 27.3589922 ] } },
{ "type": "Feature", "properties": { "name": "Saket Physiotherapy Clinic", "type": "clinic" }, "geometry": { "type": "Point", "coordinates": [ 95.3457223, 27.4834296 ] } },
{ "type": "Feature", "properties": { "name": "Phukan Dental Clinic", "type": "dentist" }, "geometry": { "type": "Point", "coordinates": [ 95.3503779, 27.4917979 ] } },
{ "type": "Feature", "properties": { "name": "Dhemaji Eye Clinic", "type": "clinic" }, "geometry": { "type": "Point", "coordinates": [ 94.5612264, 27.4742893 ] } },
{ "type": "Feature", "properties": { "name": "Derma Clinic", "type": "clinic" }, "geometry": { "type": "Point", "coordinates": [ 94.9316652, 27.4910516 ] } },
{ "type": "Feature", "properties": { "name": "Dr.Mukesh Fogla", "type": "doctors" }, "geometry": { "type": "Point", "coordinates": [ 94.9176258, 27.4891966 ] } },
{ "type": "Feature", "properties": { "name": "Apollo Hospitals", "type": "hospital" }, "geometry": { "type": "Point", "coordinates": [ 95.3488317, 27.4936184 ] } },
{ "type": "Feature", "properties": { "name": "Dr. Saikat Patra", "type": "doctors" }, "geometry": { "type": "Point", "coordinates": [ 94.9036906, 27.4747322 ] } },
{ "type": "Feature", "properties": { "name": "Dr. Reena Ahmed", "type": "doctors" }, "geometry": { "type": "Point", "coordinates": [ 94.9183342, 27.4713212 ] } },
{ "type": "Feature", "properties": { "name": "Dr. Uk Paul", "type": "doctors" }, "geometry": { "type": "Point", "coordinates": [ 95.3547167, 27.4887556 ] } },
{ "type": "Feature", "properties": { "name": "Trinity Speciality Clinic", "type": "clinic" }, "geometry": { "type": "Point", "coordinates": [ 94.929173, 27.486637 ] } },
{ "type": "Feature", "properties": { "name": "Derma Doctor", "type": "doctors" }, "geometry": { "type": "Point", "coordinates": [ 94.904211, 27.4798487 ] } },
{ "type": "Feature", "properties": { "name": "Dr. G.S Gogoi", "type": "doctors" }, "geometry": { "type": "Point", "coordinates": [ 95.3503886, 27.49351 ] } },
{ "type": "Feature", "properties": { "name": "Greenwood East Division Dispensary", "type": "" }, "geometry": { "type": "Point", "coordinates": [ 95.0495933, 27.5026822 ] } },
{ "type": "Feature", "properties": { "name": "Dr. Brinchi", "type": "doctors" }, "geometry": { "type": "Point", "coordinates": [ 94.5698492, 27.4862203 ] } },
{ "type": "Feature", "properties": { "name": "ECHS Polyclinic", "type": "clinic" }, "geometry": { "type": "Point", "coordinates": [ 95.3570837, 27.4908587 ] } },
{ "type": "Feature", "properties": { "name": "Eastern Dental Clinic", "type": "dentist" }, "geometry": { "type": "Point", "coordinates": [ 95.3491307, 27.4845041 ] } },
{ "type": "Feature", "properties": { "name": "Nudwa Hospital", "type": "hospital" }, "geometry": { "type": "Point", "coordinates": [ 95.101352, 27.48202 ] } },
{ "type": "Feature", "properties": { "name": "Mili Nursing Home", "type": "clinic" }, "geometry": { "type": "Point", "coordinates": [ 94.5578241, 27.4727248 ] } },
{ "type": "Feature", "properties": { "name": "The Dental Clinic, Duliajan", "type": "dentist" }, "geometry": { "type": "Point", "coordinates": [ 95.318927, 27.3451413 ] } },
{ "type": "Feature", "properties": { "name": "Apple Pharma Consultant Neuropsychiatrist", "type": "clinic" }, "geometry": { "type": "Point", "coordinates": [ 95.3507839, 27.4920331 ] } },
{ "type": "Feature", "properties": { "name": "BCB Care Hospital", "type": "hospital" }, "geometry": { "type": "Point", "coordinates": [ 94.5580656, 27.4701787 ] } },
{ "type": "Feature", "properties": { "name": "Apollo Clinic", "type": "clinic" }, "geometry": { "type": "Point", "coordinates": [ 95.349472, 27.493347 ] } },
{ "type": "Feature", "properties": { "name": "Orange Advanced Dental Care", "type": "dentist" }, "geometry": { "type": "Point", "coordinates": [ 95.3462152, 27.4835093 ] } },
{ "type": "Feature", "properties": { "name": "Lalita Dental Clinic", "type": "dentist" }, "geometry": { "type": "Point", "coordinates": [ 95.2565601, 27.4953021 ] } },
{ "type": "Feature", "properties": { "name": "Mili Hospital & Recharch Centre", "type": "hospital" }, "geometry": { "type": "Point", "coordinates": [ 94.5580985, 27.4723298 ] } },
{ "type": "Feature", "properties": { "name": "Dr. Ronjon Bhattacharyya", "type": "doctors" }, "geometry": { "type": "Point", "coordinates": [ 95.3117723, 27.3623126 ] } },
{ "type": "Feature", "properties": { "name": "Dr. Bipul Chandra Kakoty", "type": "doctors" }, "geometry": { "type": "Point", "coordinates": [ 95.3096009, 27.3664549 ] } },
{ "type": "Feature", "properties": { "name": "Physio Care Clinic", "type": "clinic" }, "geometry": { "type": "Point", "coordinates": [ 94.9306187, 27.4899117 ] } },
{ "type": "Feature", "properties": { "name": "Smilestones Dental Clinic", "type": "dentist" }, "geometry": { "type": "Point", "coordinates": [ 94.5647544, 27.4779328 ] } },
{ "type": "Feature", "properties": { "name": "Dr. Mriganka Baruah", "type": "doctors" }, "geometry": { "type": "Point", "coordinates": [ 94.9069765, 27.4697518 ] } },
{ "type": "Feature", "properties": { "name": "Dr. Lohit K Borah", "type": "doctors" }, "geometry": { "type": "Point", "coordinates": [ 94.924252, 27.1728125 ] } },
{ "type": "Feature", "properties": { "name": "Dr. Anupam Agarwal Skin Clinic", "type": "clinic" }, "geometry": { "type": "Point", "coordinates": [ 95.3550417, 27.4886394 ] } },
{ "type": "Feature", "properties": { "name": "Archana Hospital", "type": "hospital" }, "geometry": { "type": "Point", "coordinates": [ 94.9298835, 27.4891115 ] } },
{ "type": "Feature", "properties": { "name": "Swastik Nursing Home", "type": "clinic" }, "geometry": { "type": "Point", "coordinates": [ 95.3657221, 27.4813715 ] } },
{ "type": "Feature", "properties": { "name": "Dr. Haque Chamber", "type": "doctors" }, "geometry": { "type": "Point", "coordinates": [ 94.8977538, 27.4790745 ] } },
{ "type": "Feature", "properties": { "name": "Apollo Diagnostics", "type": "clinic" }, "geometry": { "type": "Point", "coordinates": [ 95.3106996, 27.3651284 ] } },
{ "type": "Feature", "properties": { "name": "Dr. Bn Mahanta", "type": "doctors" }, "geometry": { "type": "Point", "coordinates": [ 94.9292563, 27.4869398 ] } },
{ "type": "Feature", "properties": { "name": "Dr. Bhattacharjie", "type": "doctors" }, "geometry": { "type": "Point", "coordinates": [ 95.3536722, 27.4893771 ] } },
{ "type": "Feature", "properties": { "name": "Amalgamated Plantations Dispensary", "type": "" }, "geometry": { "type": "Point", "coordinates": [ 95.0908632, 27.4860888 ] } },
{ "type": "Feature", "properties": { "name": "E.S.I.S Dispensary", "type": "" }, "geometry": { "type": "Point", "coordinates": [ 94.9127407, 27.4614121 ] } },
{ "type": "Feature", "properties": { "name": "Holy Child Clinic and Hospital", "type": "hospital" }, "geometry": { "type": "Point", "coordinates": [ 94.9258202, 27.4898148 ] } },
{ "type": "Feature", "properties": { "name": "Dr. Sorbeswar Bhuyan", "type": "doctors" }, "geometry": { "type": "Point", "coordinates": [ 94.9473118, 27.4872732 ] } },
{ "type": "Feature", "properties": { "name": "SubCentre, Longkhong", "type": "" }, "geometry": { "type": "Point", "coordinates": [ 95.5336875, 27.0837532 ] } },
{ "type": "Feature", "properties": { "name": "SubCentre, Deomali", "type": "" }, "geometry": { "type": "Point", "coordinates": [ 95.4679433, 27.1955468 ] } },
{ "type": "Feature", "properties": { "name": "Industrial Technical Institute", "type": "school" }, "geometry": { "type": "Point", "coordinates": [ 95.1723145, 27.4821415 ] } },
{ "type": "Feature", "properties": { "name": "Puja Hospital", "type": "hospital" }, "geometry": { "type": "Point", "coordinates": [ 94.9187603, 27.4876483 ] } },
{ "type": "Feature", "properties": { "name": "SPK .HS .SCHOOL", "type": "school" }, "geometry": { "type": "Point", "coordinates": [ 95.1613846, 27.1020501 ] } },
{ "type": "Feature", "properties": { "name": "Sapekhati College", "type": "college" }, "geometry": { "type": "Point", "coordinates": [ 95.1640249, 27.1003216 ] } },
{ "type": "Feature", "properties": { "name": "S.S.B.N.School", "type": "school" }, "geometry": { "type": "Point", "coordinates": [ 95.1655614, 27.1045696 ] } },
{ "type": "Feature", "properties": { "name": "S.S..N School", "type": "school" }, "geometry": { "type": "Point", "coordinates": [ 95.1648592, 27.1050963 ] } },
{ "type": "Feature", "properties": { "name": "Brookfield English school", "type": "school" }, "geometry": { "type": "Point", "coordinates": [ 95.1650178, 27.1043654 ] } },
{ "type": "Feature", "properties": { "name": "Girls H.S School", "type": "school" }, "geometry": { "type": "Point", "coordinates": [ 95.1650242, 27.1039151 ] } },
{ "type": "Feature", "properties": { "name": "Anjelika Academy School", "type": "school" }, "geometry": { "type": "Point", "coordinates": [ 95.1602927, 27.1095808 ] } },
{ "type": "Feature", "properties": { "name": "A", "type": "college" }, "geometry": { "type": "Point", "coordinates": [ 95.1594227, 27.1053373 ] } },
{ "type": "Feature", "properties": { "name": "Radhakrishnan Academy,School", "type": "school" }, "geometry": { "type": "Point", "coordinates": [ 95.1761849, 27.0828934 ] } },
{ "type": "Feature", "properties": { "name": "782 No,Lkhimipam L.P School", "type": "school" }, "geometry": { "type": "Point", "coordinates": [ 95.1765285, 27.0825251 ] } },
{ "type": "Feature", "properties": { "name": "Sapekhati Jatiyabidyaloi", "type": "school" }, "geometry": { "type": "Point", "coordinates": [ 95.1789059, 27.0830755 ] } },
{ "type": "Feature", "properties": { "name": "Ultralab", "type": "" }, "geometry": { "type": "Point", "coordinates": [ 95.3503273, 27.4922866 ] } },
{ "type": "Feature", "properties": { "name": "Life Care", "type": "clinic" }, "geometry": { "type": "Point", "coordinates": [ 95.3508581, 27.4917863 ] } },
{ "type": "Feature", "properties": { "name": "Primax Health Specialists", "type": "" }, "geometry": { "type": "Point", "coordinates": [ 95.3494653, 27.4931343 ] } },
{ "type": "Feature", "properties": { "name": "Primax Medicos", "type": "pharmacy" }, "geometry": { "type": "Point", "coordinates": [ 95.3494861, 27.4931136 ] } },
{ "type": "Feature", "properties": { "name": "Assam Diagnostic Centre", "type": "" }, "geometry": { "type": "Point", "coordinates": [ 95.3514254, 27.4913025 ] } },
{ "type": "Feature", "properties": { "name": "Indu Pharmacy", "type": "pharmacy" }, "geometry": { "type": "Point", "coordinates": [ 95.3518297, 27.4910423 ] } },
{ "type": "Feature", "properties": { "name": "Abhish Dental", "type": "dentist" }, "geometry": { "type": "Point", "coordinates": [ 95.3550443, 27.4888252 ] } },
{ "type": "Feature", "properties": { "name": "Urban Health Centre", "type": "clinic" }, "geometry": { "type": "Point", "coordinates": [ 95.3559616, 27.4888404 ] } },
{ "type": "Feature", "properties": { "name": "TINSUKIA COMMERCE COLLEGE", "type": "college" }, "geometry": { "type": "Point", "coordinates": [ 95.3365782, 27.470808 ] } },
{ "type": "Feature", "properties": { "name": "Jatiya Vidyalaya", "type": "school" }, "geometry": { "type": "Point", "coordinates": [ 95.3436331, 27.4738149 ] } },
{ "type": "Feature", "properties": { "name": "Shankardev Shishu/Vidya Niketan, Silapathar", "type": "school" }, "geometry": { "type": "Point", "coordinates": [ 94.7183264, 27.5842717 ] } },
{ "type": "Feature", "properties": { "name": "Oil India Higher Secondary School", "type": "school" }, "geometry": { "type": "Point", "coordinates": [ 95.3269882, 27.3602385 ] } },
{ "type": "Feature", "properties": { "name": "Uttar Zaloni Primary School", "type": "school" }, "geometry": { "type": "Point", "coordinates": [ 95.3116163, 27.3691729 ] } },
{ "type": "Feature", "properties": { "name": "Uccha Vidyalaya", "type": "school" }, "geometry": { "type": "Point", "coordinates": [ 95.3350174, 27.3585501 ] } },
{ "type": "Feature", "properties": { "name": "Duliajan OIL Hospital", "type": "hospital" }, "geometry": { "type": "Point", "coordinates": [ 95.3235706, 27.359083 ] } },
{ "type": "Feature", "properties": { "name": "Tinsukia College", "type": "college" }, "geometry": { "type": "Point", "coordinates": [ 95.364477, 27.4977559 ] } },
{ "type": "Feature", "properties": { "name": "", "type": "school" }, "geometry": { "type": "Point", "coordinates": [ 95.3259967, 27.5051244 ] } },
{ "type": "Feature", "properties": { "name": "I.T.I Ground", "type": "college" }, "geometry": { "type": "Point", "coordinates": [ 95.3334878, 27.5023048 ] } },
{ "type": "Feature", "properties": { "name": "Moran College", "type": "college" }, "geometry": { "type": "Point", "coordinates": [ 94.91538, 27.1766706 ] } },
{ "type": "Feature", "properties": { "name": "City Hospital and Research Centre", "type": "hospital" }, "geometry": { "type": "Point", "coordinates": [ 95.3518773, 27.4865659 ] } },
{ "type": "Feature", "properties": { "name": "Brahmaputra Valley Fertilizer Corporation Limited Hospital", "type": "hospital" }, "geometry": { "type": "Point", "coordinates": [ 95.3614113, 27.1900465 ] } },
{ "type": "Feature", "properties": { "name": "Vivekananda Center", "type": "school" }, "geometry": { "type": "Point", "coordinates": [ 94.9051058, 27.4833992 ] } },
{ "type": "Feature", "properties": { "name": "Little Angel School", "type": "school" }, "geometry": { "type": "Point", "coordinates": [ 95.1628002, 27.4753933 ] } },
{ "type": "Feature", "properties": { "name": "North Eastern Engineering Institute ITI Chabua", "type": "school" }, "geometry": { "type": "Point", "coordinates": [ 95.1699725, 27.4839749 ] } },
{ "type": "Feature", "properties": { "name": "Dr John Berry White Medical School", "type": "school" }, "geometry": { "type": "Point", "coordinates": [ 94.9146928, 27.4883129 ] } },
{ "type": "Feature", "properties": { "name": "Silapathar Science College", "type": "school" }, "geometry": { "type": "Point", "coordinates": [ 94.7325942, 27.6074927 ] } },
{ "type": "Feature", "properties": { "name": "Silapathar College", "type": "school" }, "geometry": { "type": "Point", "coordinates": [ 94.7270706, 27.5921107 ] } },
{ "type": "Feature", "properties": { "name": "Silapathar Residential Higher Secondary School", "type": "school" }, "geometry": { "type": "Point", "coordinates": [ 94.7167956, 27.5879369 ] } },
{ "type": "Feature", "properties": { "name": "Silapathar Model Hospital", "type": "hospital" }, "geometry": { "type": "Point", "coordinates": [ 94.7190885, 27.587841 ] } },
{ "type": "Feature", "properties": { "name": "Sila Jana Jati High School", "type": "school" }, "geometry": { "type": "Point", "coordinates": [ 94.7528853, 27.6015918 ] } },
{ "type": "Feature", "properties": { "name": "Silapathar Residential English Higher Secondary School", "type": "school" }, "geometry": { "type": "Point", "coordinates": [ 94.7302549, 27.5834302 ] } },
{ "type": "Feature", "properties": { "name": "Lord Macauly High School", "type": "school" }, "geometry": { "type": "Point", "coordinates": [ 94.7274933, 27.5992875 ] } },
{ "type": "Feature", "properties": { "name": "Shiksha Valley School", "type": "school" }, "geometry": { "type": "Point", "coordinates": [ 94.9243312, 27.4245339 ] } },
{ "type": "Feature", "properties": { "name": "Jokai Central Hospital", "type": "hospital" }, "geometry": { "type": "Point", "coordinates": [ 95.2647606, 27.4928927 ] } },
{ "type": "Feature", "properties": { "name": "", "type": "school" }, "geometry": { "type": "Point", "coordinates": [ 95.1615862, 27.1021138 ] } },
{ "type": "Feature", "properties": { "name": "", "type": "school" }, "geometry": { "type": "Point", "coordinates": [ 95.1616708, 27.1015043 ] } },
{ "type": "Feature", "properties": { "name": "VIDYA NIKETAN SCHOOLGROUND", "type": "school" }, "geometry": { "type": "Point", "coordinates": [ 95.1016849, 27.1741004 ] } },
{ "type": "Feature", "properties": { "name": "OPEN GROUND", "type": "school" }, "geometry": { "type": "Point", "coordinates": [ 95.1116158, 27.1808963 ] } },
{ "type": "Feature", "properties": { "name": "OPEN", "type": "school" }, "geometry": { "type": "Point", "coordinates": [ 95.125783, 27.1897121 ] } },
{ "type": "Feature", "properties": { "name": "SK Dey Hospital", "type": "hospital" }, "geometry": { "type": "Point", "coordinates": [ 95.3522392, 27.4889074 ] } },
{ "type": "Feature", "properties": { "name": "DIbrugarh University", "type": "university" }, "geometry": { "type": "Point", "coordinates": [ 94.8965863, 27.4492517 ] } },
{ "type": "Feature", "properties": { "name": "", "type": "school" }, "geometry": { "type": "Point", "coordinates": [ 95.1033187, 27.1796852 ] } }
]
}
