{
"type": "FeatureCollection",
"name": "real_reaches",
"crs": { "type": "name", "properties": { "name": "urn:ogc:def:crs:OGC:1.3:CRS84" } },
"features": [
{ "type": "Feature", "properties": { "rid": 0, "district": "Majuli", "ERate": 6.0064640693981746, "length_m": 11484.630789345791, "M1_area_ha": 0.0, "M1_rate": 0.0, "M2_area_ha": 0.0, "M2_rate": 0.0, "M3_area_ha": 1.8074, "M3_rate": 0.13114628535241435 }, "geometry": { "type": "LineString", "coordinates": [ [ 94.01169051079998, 26.969733471700003 ], [ 94.017755859699975, 26.971964818899998 ], [ 94.020255308099991, 26.974275919699998 ], [ 94.0226912352, 26.982924928099994 ], [ 94.028159824400021, 26.985918464600001 ], [ 94.031791708899988, 26.986379418400002 ], [ 94.039624291699965, 26.983396866899998 ], [ 94.046229336799982, 26.978473015099993 ], [ 94.050150736299997, 26.977577191599991 ], [ 94.053781916800006, 26.977983421700003 ], [ 94.061693095799995, 26.983503173700001 ], [ 94.067140207499989, 26.984112026799998 ], [ 94.070561571300004, 26.981486105099989 ], [ 94.072901533799993, 26.96684345309999 ], [ 94.075703908500003, 26.962759636199987 ], [ 94.081423841799975, 26.960386739499988 ], [ 94.084144278799982, 26.960420016499995 ], [ 94.087180449599956, 26.961859125399993 ], [ 94.090296960999979, 26.965355854799991 ] ] } },
{ "type": "Feature", "properties": { "rid": 1, "district": "Majuli", "ERate": 1.793775986656819, "length_m": 11408.520921534207, "M1_area_ha": 0.0, "M1_rate": 0.0, "M2_area_ha": 0.0, "M2_rate": 0.0, "M3_area_ha": 2.9841, "M3_rate": 0.21797304112456187 }, "geometry": { "type": "LineString", "coordinates": [ [ 94.090113017799979, 26.965086446899996 ], [ 94.092676800500016, 26.967666569300004 ], [ 94.109375400199994, 26.975281868499998 ], [ 94.120573652499999, 26.976709928599995 ], [ 94.126341252899991, 26.979155573399982 ], [ 94.124521085000012, 26.984586660299996 ], [ 94.119614728099975, 26.989771452100001 ], [ 94.117896260799995, 26.993305855699997 ], [ 94.117392271100002, 26.997372266700001 ], [ 94.118913048, 27.00440170509999 ], [ 94.119953841699967, 27.005693403299997 ], [ 94.131164981799984, 27.008095415899998 ], [ 94.135086638099992, 27.007197221 ], [ 94.139470658199997, 27.004182736 ], [ 94.145262207899989, 26.996877633499995 ], [ 94.149174542699981, 26.995112489799997 ], [ 94.150069870499991, 26.99396771579999 ], [ 94.153989764599984, 26.992960691799993 ] ] } },
{ "type": "Feature", "properties": { "rid": 2, "district": "Majuli", "ERate": 4.0485069307154111, "length_m": 10703.720141639775, "M1_area_ha": 4.48, "M1_rate": 0.34878839169289039, "M2_area_ha": 0.0, "M2_rate": 0.0, "M3_area_ha": 5.5394, "M3_rate": 0.43126750378205281 }, "geometry": { "type": "LineString", "coordinates": [ [ 94.236045703699986, 27.082005175100001 ], [ 94.236892270599995, 27.081952592699995 ], [ 94.238683579499977, 27.079770280600005 ], [ 94.242013642399982, 27.0799575538 ], [ 94.251068659, 27.0780357097 ], [ 94.25833191160001, 27.078241704699995 ], [ 94.263205464299972, 27.0811769755 ], [ 94.265292999199986, 27.083866359299996 ], [ 94.265983286899967, 27.091442978599996 ], [ 94.268025828199995, 27.095486792399996 ], [ 94.270043465399993, 27.097310113699997 ], [ 94.274295236800015, 27.098679857499999 ], [ 94.284579254800008, 27.098315404599987 ], [ 94.288495799199993, 27.0968171514 ], [ 94.291361194299995, 27.093378596199994 ], [ 94.292974602599983, 27.086322603700001 ], [ 94.296506389599998, 27.082986143699998 ], [ 94.299116788099994, 27.083720321400001 ], [ 94.301452235699998, 27.08684015319999 ], [ 94.30962232200001, 27.092126358499996 ], [ 94.309634291999984, 27.093155334799988 ], [ 94.308128495299968, 27.093765147100001 ] ] } },
{ "type": "Feature", "properties": { "rid": 3, "district": "Majuli", "ERate": 29.412523535451356, "length_m": 11622.750450148496, "M1_area_ha": 494.36, "M1_rate": 35.444851752917337, "M2_area_ha": 0.0, "M2_rate": 0.0, "M3_area_ha": 816.7532, "M3_rate": 58.559948403432401 }, "geometry": { "type": "LineString", "coordinates": [ [ 94.042840998700001, 26.873035341400001 ], [ 94.038625091, 26.874366400900001 ], [ 94.008097659499981, 26.871608243 ], [ 93.992630693600006, 26.864188401899998 ], [ 93.985066994199983, 26.862562107899997 ], [ 93.957914001199995, 26.865565447199995 ], [ 93.950686127199972, 26.867943472899995 ], [ 93.930174497699994, 26.870896694599999 ] ] } },
{ "type": "Feature", "properties": { "rid": 4, "district": "Majuli", "ERate": 17.148772163549484, "length_m": 18829.269342554249, "M1_area_ha": 32.36, "M1_rate": 1.4321674503705706, "M2_area_ha": 0.0, "M2_rate": 0.0, "M3_area_ha": 19.5061, "M3_rate": 0.86328805635579065 }, "geometry": { "type": "LineString", "coordinates": [ [ 94.155720654399985, 26.866253241500004 ], [ 94.159047679400004, 26.866767659299988 ], [ 94.172709417599975, 26.873804859399989 ], [ 94.184277507699989, 26.882645718700001 ], [ 94.191873979199968, 26.887023410499989 ], [ 94.210366130400004, 26.893420179799993 ], [ 94.224546486399987, 26.891943830299994 ], [ 94.26221748479999, 26.884354174899993 ], [ 94.27311888669999, 26.886910419500001 ], [ 94.289445712499997, 26.888441432 ], [ 94.299776255799983, 26.893817333599998 ], [ 94.307083760899971, 26.898895477 ], [ 94.321357674299975, 26.905533116299999 ], [ 94.325654564099992, 26.911342515500003 ] ] } },
{ "type": "Feature", "properties": { "rid": 5, "district": "Majuli", "ERate": 13.202593907469611, "length_m": 16148.419108090804, "M1_area_ha": 1155.68, "M1_rate": 59.638448830210486, "M2_area_ha": 0.0, "M2_rate": 0.0, "M3_area_ha": 1496.1665, "M3_rate": 77.209131638277995 }, "geometry": { "type": "LineString", "coordinates": [ [ 94.325651400399991, 26.911071727099994 ], [ 94.3404375896, 26.930160112699998 ], [ 94.354046187099996, 26.936258944099993 ], [ 94.368419013800008, 26.950473427500008 ], [ 94.378386114700007, 26.964946109400007 ], [ 94.395335463799981, 26.976749244099995 ], [ 94.404274586299991, 26.9858680167 ], [ 94.40858222739999, 26.991945324 ], [ 94.43566829549998, 27.011007572699999 ], [ 94.437509703700002, 27.013155243100002 ] ] } },
{ "type": "Feature", "properties": { "rid": 6, "district": "Dibrugarh", "ERate": 12.320987902049062, "length_m": 4395.9406501247795, "M1_area_ha": 22.48, "M1_rate": 4.2615073369567869, "M2_area_ha": 19.81, "M2_rate": 3.7553585562773102, "M3_area_ha": 87.0814, "M3_rate": 16.507919262120492 }, "geometry": { "type": "LineString", "coordinates": [ [ 94.9316984469, 27.549028184299996 ], [ 94.958222948599996, 27.554504961300005 ], [ 94.973222286299986, 27.560898858 ] ] } },
{ "type": "Feature", "properties": { "rid": 7, "district": "Dibrugarh", "ERate": 21.574321221387951, "length_m": 16662.033100718869, "M1_area_ha": 945.24, "M1_rate": 47.275143149608517, "M2_area_ha": 1023.39, "M2_rate": 51.18372979124652, "M3_area_ha": 1219.4644, "M3_rate": 60.99017612019324 }, "geometry": { "type": "LineString", "coordinates": [ [ 94.972918571299985, 27.560903172599993 ], [ 94.980524060599976, 27.561498861599997 ], [ 94.988159851799992, 27.563772298099991 ], [ 95.014059840499996, 27.568001682199998 ], [ 95.02751234290001, 27.572625058499995 ], [ 95.037024179700012, 27.577683989899999 ], [ 95.07363755850001, 27.585859556900001 ], [ 95.090138305899984, 27.590755958899997 ], [ 95.117677585300015, 27.600734447 ], [ 95.129106442700007, 27.610305712499997 ] ] } },
{ "type": "Feature", "properties": { "rid": 8, "district": "Dibrugarh", "ERate": 30.483682989510665, "length_m": 5857.5314204773058, "M1_area_ha": 43.44, "M1_rate": 6.1800778180119798, "M2_area_ha": 36.24, "M2_rate": 5.155755527733751, "M3_area_ha": 130.9698, "M3_rate": 18.632678540733547 }, "geometry": { "type": "LineString", "coordinates": [ [ 95.129101207899978, 27.610035066 ], [ 95.141604761999986, 27.627872893699998 ], [ 95.148384986600021, 27.63264104 ], [ 95.171114476500009, 27.644577717899995 ] ] } },
{ "type": "Feature", "properties": { "rid": 9, "district": "Dibrugarh", "ERate": 13.971848674458395, "length_m": 10848.061581037251, "M1_area_ha": 633.8, "M1_rate": 48.687653800741543, "M2_area_ha": 516.77, "M2_rate": 39.697568404242993, "M3_area_ha": 542.228, "M3_rate": 41.653217332073972 }, "geometry": { "type": "LineString", "coordinates": [ [ 95.129106442700007, 27.610305712499997 ], [ 95.16552292339999, 27.576713697900001 ], [ 95.169520304399981, 27.579141944899987 ], [ 95.185718662299976, 27.583977416899991 ], [ 95.199066840899988, 27.582954417400003 ], [ 95.207216628299975, 27.580280295199991 ], [ 95.220007816599974, 27.581808913900009 ] ] } },
{ "type": "Feature", "properties": { "rid": 10, "district": "Dibrugarh", "ERate": 16.425488115230667, "length_m": 12351.232223547928, "M1_area_ha": 608.08, "M1_rate": 41.026945665164789, "M2_area_ha": 575.49, "M2_rate": 38.828109723795691, "M3_area_ha": 665.4465, "M3_rate": 44.897443426151305 }, "geometry": { "type": "LineString", "coordinates": [ [ 95.219704091999986, 27.5818137712 ], [ 95.237668774799999, 27.583745203100001 ], [ 95.257599232399969, 27.577791598099981 ], [ 95.263319616800018, 27.575262023199997 ], [ 95.270591613699978, 27.574331134800001 ], [ 95.276310368199987, 27.571746927599996 ], [ 95.284803427299991, 27.571120137199998 ], [ 95.302850523999979, 27.577048294 ], [ 95.3131987955, 27.577959073199988 ], [ 95.330658042799982, 27.584705399799994 ], [ 95.337967712400001, 27.585556997399994 ] ] } },
{ "type": "Feature", "properties": { "rid": 11, "district": "Dibrugarh", "ERate": 13.71282964165839, "length_m": 11337.456886840317, "M1_area_ha": 72.76, "M1_rate": 5.3480541481672175, "M2_area_ha": 110.18, "M2_rate": 8.0985239973208341, "M3_area_ha": 115.4955, "M3_rate": 8.489227430863755 }, "geometry": { "type": "LineString", "coordinates": [ [ 94.938103165800001, 27.324756998 ], [ 94.94021120799998, 27.327435284 ], [ 94.94008186939999, 27.333935192299997 ], [ 94.941083864700005, 27.335762400099998 ], [ 94.950439369099996, 27.336769221899992 ], [ 94.964566493799978, 27.347022232899992 ], [ 94.969761860799991, 27.349331644 ], [ 94.977061155799987, 27.350582220499998 ], [ 94.979695104699971, 27.352061095699991 ], [ 94.9830971855, 27.355803306399988 ], [ 94.986118557899971, 27.361987584899996 ], [ 94.989707918600004, 27.365997692500002 ], [ 94.99431389759998, 27.375949627499999 ], [ 94.996354898100009, 27.378140569499994 ], [ 95.000018735200001, 27.379495979200009 ], [ 95.00393805729999, 27.378194298799997 ], [ 95.006371615899965, 27.375235256 ], [ 95.004554500199987, 27.3720124102 ], [ 95.000430377399979, 27.368660178199995 ] ] } },
{ "type": "Feature", "properties": { "rid": 12, "district": "Dibrugarh", "ERate": 17.226029157794834, "length_m": 3652.8263425822065, "M1_area_ha": 726.08, "M1_rate": 165.64342509612464, "M2_area_ha": 762.12, "M2_rate": 173.86536901478971, "M3_area_ha": 689.6334, "M3_rate": 157.32872195444824 }, "geometry": { "type": "LineString", "coordinates": [ [ 94.669654103499994, 27.314684473299994 ], [ 94.670264344599971, 27.314947959499996 ], [ 94.669318585200017, 27.312522251599997 ], [ 94.667224892099981, 27.294134254 ], [ 94.662526086599996, 27.283900559199999 ] ] } }
]
}
